{
  "norad_id": 42945,
  "name": "YAOGAN-30 02A",
  "history": [
    {
      "epoch": "2026-03-28T21:19:50.872800",
      "apogee_km": 560.2099075319065,
      "perigee_km": 557.2871201894968,
      "latitude_deg": 13.197457519343349,
      "longitude_deg": -0.17680799984373152,
      "semi_major_axis_km": 6936.885513860701,
      "eccentricity": 0.00021067,
      "inclination_deg": 34.9967,
      "raan_deg": 158.8226,
      "arg_perigee_deg": 184.3484,
      "mean_anomaly_deg": 175.7206,
      "mean_motion_rev_day": 15.0264355
    },
    {
      "epoch": "2026-03-29T05:18:13.674240",
      "apogee_km": 560.2267055915781,
      "perigee_km": 557.2424634359204,
      "latitude_deg": -19.213627331152864,
      "longitude_deg": 31.715193600161,
      "semi_major_axis_km": 6936.871584513749,
      "eccentricity": 0.0002151,
      "inclination_deg": 34.9967,
      "raan_deg": 156.7979,
      "arg_perigee_deg": 187.1614,
      "mean_anomaly_deg": 172.9064,
      "mean_motion_rev_day": 15.02648076
    }
  ]
}